CCSDS_OMM_VERS = 2.0
CREATION_DATE  = 
ORIGINATOR     = 

OBJECT_NAME    = STARLINK-35443
OBJECT_ID      = 2025-253W
CENTER_NAME    = EARTH
REF_FRAME      = TEME
TIME_SYSTEM    = UTC
MEAN_ELEMENT_THEORY = SGP/SGP4

EPOCH          = 2025-11-18T04:00:03.000096
MEAN_MOTION    = 15.79794484
ECCENTRICITY   = .0001754
INCLINATION    = 42.9956
RA_OF_ASC_NODE = 129.6957
ARG_OF_PERICENTER = 275.2812
MEAN_ANOMALY   = 93.9288

EPHEMERIS_TYPE = 0
CLASSIFICATION_TYPE = U
NORAD_CAT_ID   = 66339
ELEMENT_SET_NO = 999
REV_AT_EPOCH   = 302
BSTAR          = -.13037E-1
MEAN_MOTION_DOT = -.2170001E-1
MEAN_MOTION_DDOT = 0

CCSDS_OMM_VERS = 2.0
CREATION_DATE  = 
ORIGINATOR     = 

OBJECT_NAME    = STARLINK-35218
OBJECT_ID      = 2025-253X
CENTER_NAME    = EARTH
REF_FRAME      = TEME
TIME_SYSTEM    = UTC
MEAN_ELEMENT_THEORY = SGP/SGP4

EPOCH          = 2025-11-18T04:00:03.000096
MEAN_MOTION    = 15.80309610
ECCENTRICITY   = .0001873
INCLINATION    = 42.9957
RA_OF_ASC_NODE = 129.7334
ARG_OF_PERICENTER = 273.1872
MEAN_ANOMALY   = 81.2561

EPHEMERIS_TYPE = 0
CLASSIFICATION_TYPE = U
NORAD_CAT_ID   = 66340
ELEMENT_SET_NO = 999
REV_AT_EPOCH   = 307
BSTAR          = -.11146E-1
MEAN_MOTION_DOT = -.1893067E-1
MEAN_MOTION_DDOT = 0

CCSDS_OMM_VERS = 2.0
CREATION_DATE  = 
ORIGINATOR     = 

OBJECT_NAME    = STARLINK-35522
OBJECT_ID      = 2025-253Y
CENTER_NAME    = EARTH
REF_FRAME      = TEME
TIME_SYSTEM    = UTC
MEAN_ELEMENT_THEORY = SGP/SGP4

EPOCH          = 2025-11-18T04:00:03.000096
MEAN_MOTION    = 15.80486448
ECCENTRICITY   = .0001707
INCLINATION    = 42.9965
RA_OF_ASC_NODE = 129.7573
ARG_OF_PERICENTER = 271.2810
MEAN_ANOMALY   = 74.1805

EPHEMERIS_TYPE = 0
CLASSIFICATION_TYPE = U
NORAD_CAT_ID   = 66341
ELEMENT_SET_NO = 999
REV_AT_EPOCH   = 307
BSTAR          = -.1079E-1
MEAN_MOTION_DOT = -.1853335E-1
MEAN_MOTION_DDOT = 0

CCSDS_OMM_VERS = 2.0
CREATION_DATE  = 
ORIGINATOR     = 

OBJECT_NAME    = STARLINK-35535
OBJECT_ID      = 2025-253Z
CENTER_NAME    = EARTH
REF_FRAME      = TEME
TIME_SYSTEM    = UTC
MEAN_ELEMENT_THEORY = SGP/SGP4

EPOCH          = 2025-11-18T04:00:03.000096
MEAN_MOTION    = 15.79849076
ECCENTRICITY   = .0001913
INCLINATION    = 42.9957
RA_OF_ASC_NODE = 129.7010
ARG_OF_PERICENTER = 270.1770
MEAN_ANOMALY   = 96.8451

EPHEMERIS_TYPE = 0
CLASSIFICATION_TYPE = U
NORAD_CAT_ID   = 66342
ELEMENT_SET_NO = 999
REV_AT_EPOCH   = 297
BSTAR          = -.12886E-1
MEAN_MOTION_DOT = -.2152998E-1
MEAN_MOTION_DDOT = 0

CCSDS_OMM_VERS = 2.0
CREATION_DATE  = 
ORIGINATOR     = 

OBJECT_NAME    = STARLINK-35467
OBJECT_ID      = 2025-253AA
CENTER_NAME    = EARTH
REF_FRAME      = TEME
TIME_SYSTEM    = UTC
MEAN_ELEMENT_THEORY = SGP/SGP4

EPOCH          = 2025-11-18T04:00:03.000096
MEAN_MOTION    = 15.79901076
ECCENTRICITY   = .0001875
INCLINATION    = 42.9954
RA_OF_ASC_NODE = 129.7067
ARG_OF_PERICENTER = 271.8541
MEAN_ANOMALY   = 92.9131

EPHEMERIS_TYPE = 0
CLASSIFICATION_TYPE = U
NORAD_CAT_ID   = 66343
ELEMENT_SET_NO = 999
REV_AT_EPOCH   = 297
BSTAR          = -.12564E-1
MEAN_MOTION_DOT = -.2064671E-1
MEAN_MOTION_DDOT = 0

CCSDS_OMM_VERS = 2.0
CREATION_DATE  = 
ORIGINATOR     = 

OBJECT_NAME    = STARLINK-35511
OBJECT_ID      = 2025-253AB
CENTER_NAME    = EARTH
REF_FRAME      = TEME
TIME_SYSTEM    = UTC
MEAN_ELEMENT_THEORY = SGP/SGP4

EPOCH          = 2025-11-18T04:00:03.000096
MEAN_MOTION    = 15.79653734
ECCENTRICITY   = .0001872
INCLINATION    = 42.9961
RA_OF_ASC_NODE = 129.6801
ARG_OF_PERICENTER = 274.4295
MEAN_ANOMALY   = 101.1960

EPHEMERIS_TYPE = 0
CLASSIFICATION_TYPE = U
NORAD_CAT_ID   = 66344
ELEMENT_SET_NO = 999
REV_AT_EPOCH   = 297
BSTAR          = -.13405E-1
MEAN_MOTION_DOT = -.2210819E-1
MEAN_MOTION_DDOT = 0

CCSDS_OMM_VERS = 2.0
CREATION_DATE  = 
ORIGINATOR     = 

OBJECT_NAME    = STARLINK-35440
OBJECT_ID      = 2025-253AC
CENTER_NAME    = EARTH
REF_FRAME      = TEME
TIME_SYSTEM    = UTC
MEAN_ELEMENT_THEORY = SGP/SGP4

EPOCH          = 2025-11-18T04:00:03.000096
MEAN_MOTION    = 15.79763748
ECCENTRICITY   = .0001918
INCLINATION    = 42.9953
RA_OF_ASC_NODE = 129.6883
ARG_OF_PERICENTER = 271.7778
MEAN_ANOMALY   = 99.5178

EPHEMERIS_TYPE = 0
CLASSIFICATION_TYPE = U
NORAD_CAT_ID   = 66345
ELEMENT_SET_NO = 999
REV_AT_EPOCH   = 297
BSTAR          = -.13156E-1
MEAN_MOTION_DOT = -.2184751E-1
MEAN_MOTION_DDOT = 0

CCSDS_OMM_VERS = 2.0
CREATION_DATE  = 
ORIGINATOR     = 

OBJECT_NAME    = STARLINK-35482
OBJECT_ID      = 2025-253AD
CENTER_NAME    = EARTH
REF_FRAME      = TEME
TIME_SYSTEM    = UTC
MEAN_ELEMENT_THEORY = SGP/SGP4

EPOCH          = 2025-11-18T04:00:03.000096
MEAN_MOTION    = 15.79726420
ECCENTRICITY   = .0001805
INCLINATION    = 42.9952
RA_OF_ASC_NODE = 129.6844
ARG_OF_PERICENTER = 275.9397
MEAN_ANOMALY   = 97.4434

EPHEMERIS_TYPE = 0
CLASSIFICATION_TYPE = U
NORAD_CAT_ID   = 66346
ELEMENT_SET_NO = 999
REV_AT_EPOCH   = 307
BSTAR          = -.1323E-1
MEAN_MOTION_DOT = -.2191983E-1
MEAN_MOTION_DDOT = 0

CCSDS_OMM_VERS = 2.0
CREATION_DATE  = 
ORIGINATOR     = 

OBJECT_NAME    = STARLINK-35438
OBJECT_ID      = 2025-253AE
CENTER_NAME    = EARTH
REF_FRAME      = TEME
TIME_SYSTEM    = UTC
MEAN_ELEMENT_THEORY = SGP/SGP4

EPOCH          = 2025-11-18T04:00:03.000096
MEAN_MOTION    = 15.79671420
ECCENTRICITY   = .0001781
INCLINATION    = 42.9955
RA_OF_ASC_NODE = 129.6739
ARG_OF_PERICENTER = 272.5507
MEAN_ANOMALY   = 104.9438

EPHEMERIS_TYPE = 0
CLASSIFICATION_TYPE = U
NORAD_CAT_ID   = 66347
ELEMENT_SET_NO = 999
REV_AT_EPOCH   = 297
BSTAR          = -.13406E-1
MEAN_MOTION_DOT = -.2212513E-1
MEAN_MOTION_DDOT = 0

CCSDS_OMM_VERS = 2.0
CREATION_DATE  = 
ORIGINATOR     = 

OBJECT_NAME    = SHIYAN-32 A
OBJECT_ID      = 2025-255A
CENTER_NAME    = EARTH
REF_FRAME      = TEME
TIME_SYSTEM    = UTC
MEAN_ELEMENT_THEORY = SGP/SGP4

EPOCH          = 2025-11-18T03:02:28.216608
MEAN_MOTION    = 15.41579423
ECCENTRICITY   = .0013113
INCLINATION    = 52.9972
RA_OF_ASC_NODE = 294.9583
ARG_OF_PERICENTER = 324.0816
MEAN_ANOMALY   = 35.9305

EPHEMERIS_TYPE = 0
CLASSIFICATION_TYPE = U
NORAD_CAT_ID   = 66376
ELEMENT_SET_NO = 999
REV_AT_EPOCH   = 155
BSTAR          = .52919E-3
MEAN_MOTION_DOT = .22305E-3
MEAN_MOTION_DDOT = 0

CCSDS_OMM_VERS = 2.0
CREATION_DATE  = 
ORIGINATOR     = 

OBJECT_NAME    = SHIYAN-32 B
OBJECT_ID      = 2025-255B
CENTER_NAME    = EARTH
REF_FRAME      = TEME
TIME_SYSTEM    = UTC
MEAN_ELEMENT_THEORY = SGP/SGP4

EPOCH          = 2025-11-18T04:32:07.992096
MEAN_MOTION    = 15.42231503
ECCENTRICITY   = .0014406
INCLINATION    = 52.9975
RA_OF_ASC_NODE = 294.6347
ARG_OF_PERICENTER = 322.2111
MEAN_ANOMALY   = 37.7880

EPHEMERIS_TYPE = 0
CLASSIFICATION_TYPE = U
NORAD_CAT_ID   = 66377
ELEMENT_SET_NO = 999
REV_AT_EPOCH   = 142
BSTAR          = .96397E-3
MEAN_MOTION_DOT = .42016E-3
MEAN_MOTION_DDOT = 0

CCSDS_OMM_VERS = 2.0
CREATION_DATE  = 
ORIGINATOR     = 

OBJECT_NAME    = SHIYAN-32 C
OBJECT_ID      = 2025-255C
CENTER_NAME    = EARTH
REF_FRAME      = TEME
TIME_SYSTEM    = UTC
MEAN_ELEMENT_THEORY = SGP/SGP4

EPOCH          = 2025-11-18T04:29:57.040800
MEAN_MOTION    = 15.42528315
ECCENTRICITY   = .0013823
INCLINATION    = 52.9989
RA_OF_ASC_NODE = 294.6252
ARG_OF_PERICENTER = 326.1937
MEAN_ANOMALY   = 33.8185

EPHEMERIS_TYPE = 0
CLASSIFICATION_TYPE = U
NORAD_CAT_ID   = 66378
ELEMENT_SET_NO = 999
REV_AT_EPOCH   = 142
BSTAR          = .95538E-3
MEAN_MOTION_DOT = .42045E-3
MEAN_MOTION_DDOT = 0

