STARLINK-35443          
1 66339U 25253W   25322.16670139 -.02170001  00000+0 -13037-1 0  9998
2 66339  42.9956 129.6957 0001754 275.2812  93.9288 15.79794484  3029
STARLINK-35218          
1 66340U 25253X   25322.16670139 -.01893067  00000+0 -11146-1 0  9992
2 66340  42.9957 129.7334 0001873 273.1872  81.2561 15.80309610  3071
STARLINK-35522          
1 66341U 25253Y   25322.16670139 -.01853335  00000+0 -10790-1 0  9991
2 66341  42.9965 129.7573 0001707 271.2810  74.1805 15.80486448  3070
STARLINK-35535          
1 66342U 25253Z   25322.16670139 -.02152998  00000+0 -12886-1 0  9998
2 66342  42.9957 129.7010 0001913 270.1770  96.8451 15.79849076  2974
STARLINK-35467          
1 66343U 25253AA  25322.16670139 -.02064671  00000+0 -12564-1 0  9992
2 66343  42.9954 129.7067 0001875 271.8541  92.9131 15.79901076  2976
STARLINK-35511          
1 66344U 25253AB  25322.16670139 -.02210819  00000+0 -13405-1 0  9995
2 66344  42.9961 129.6801 0001872 274.4295 101.1960 15.79653734  2970
STARLINK-35440          
1 66345U 25253AC  25322.16670139 -.02184751  00000+0 -13156-1 0  9994
2 66345  42.9953 129.6883 0001918 271.7778  99.5178 15.79763748  2977
STARLINK-35482          
1 66346U 25253AD  25322.16670139 -.02191983  00000+0 -13230-1 0  9993
2 66346  42.9952 129.6844 0001805 275.9397  97.4434 15.79726420  3072
STARLINK-35438          
1 66347U 25253AE  25322.16670139 -.02212513  00000+0 -13406-1 0  9992
2 66347  42.9955 129.6739 0001781 272.5507 104.9438 15.79671420  2973
SHIYAN-32 A             
1 66376U 25255A   25322.12671547  .00022305  00000+0  52919-3 0  9994
2 66376  52.9972 294.9583 0013113 324.0816  35.9305 15.41579423  1554
SHIYAN-32 B             
1 66377U 25255B   25322.18898139  .00042016  00000+0  96397-3 0  9998
2 66377  52.9975 294.6347 0014406 322.2111  37.7880 15.42231503  1426
SHIYAN-32 C             
1 66378U 25255C   25322.18746575  .00042045  00000+0  95538-3 0  9993
2 66378  52.9989 294.6252 0013823 326.1937  33.8185 15.42528315  1423
